0 COSMOS 1275 DEB
1 13797U 81053GU  13282.10969807  .00000426  00000-0  37580-3 0  8717
2 13797 082.8375 244.6630 0054880 031.3645 085.8738 13.82339759562804
0 COSMOS 1275 DEB
1 13797U 81053GU  13283.63097343  .00000389  00000-0  34207-3 0  8725
2 13797 082.8376 243.5050 0054815 027.1703 096.2901 13.82341309563011
0 COSMOS 1275 DEB
1 13797U 81053GU  13285.86200596  .00000404  00000-0  35626-3 0  8744
2 13797 082.8381 241.8066 0054686 020.9900 038.7618 13.82343133563328
0 COSMOS 1275 DEB
1 13797U 81053GU  13286.87499631  .00000441  00000-0  38939-3 0  8758
2 13797 082.8383 241.0355 0054629 018.1819 039.7967 13.82343937563463
0 COSMOS 1275 DEB
1 13797U 81053GU  13288.17834641  .00000534  00000-0  47537-3 0  8765
2 13797 082.8387 240.0435 0054563 014.5576 045.7911 13.82345653563645
0 COSMOS 1275 DEB
1 13797U 81053GU  13289.84297956  .00000499  00000-0  44265-3 0  8778
2 13797 082.8389 238.7765 0054472 009.9611 049.6538 13.82347265563878
0 COSMOS 1275 DEB
1 13797U 81053GU  13291.08777310  .00000513  00000-0  45617-3 0  8784
2 13797 082.8391 237.8292 0054390 006.5059 124.2557 13.82348255564045
0 COSMOS 1275 DEB
1 13797U 81053GU  13292.10042215  .00000539  00000-0  47995-3 0  8797
2 13797 082.8391 237.0586 0054318 003.6791 123.6315 13.82349233564181
0 COSMOS 1275 DEB
1 13797U 81053GU  13293.25872274  .00000575  00000-0  51312-3 0  8800
2 13797 082.8392 236.1773 0054248 000.4573 127.8245 13.82350781564341
0 COSMOS 1275 DEB
1 13797U 81053GU  13294.27209032  .00000556  00000-0  49577-3 0  8819
2 13797 082.8392 235.4061 0054169 357.6333 130.7786 13.82351856564488
0 COSMOS 1275 DEB
1 13797U 81053GU  13296.00945770  .00000564  00000-0  50266-3 0  8825
2 13797 082.8392 234.0839 0054044 352.7232 136.7459 13.82354233564724
